GLOBALSTAR M063         
1 26081U 00008A   25290.78117277 -.00000036  00000+0  68080-3 0  9997
2 26081  51.9923 148.7020 0004317 177.0237 306.2698 11.86176413172127
GLOBALSTAR M062         
1 26082U 00008B   25290.80134353 -.00000054  00000+0  31750-3 0  9999
2 26082  51.9832  95.2060 0007299  21.6684 113.1101 12.43474788511872
GLOBALSTAR M060         
1 26083U 00008C   25290.80898567 -.00000019  00000+0  71831-3 0  9999
2 26083  52.0019  72.5385 0003406  30.8227 147.1847 12.17668404167301
GLOBALSTAR M064         
1 26084U 00008D   25290.59225228 -.00000076  00000+0  10826-3 0  9994
2 26084  52.0019 246.5845 0001393 315.1566  44.9153 11.88537584181653
GLOBALSTAR M065         
1 31571U 07020A   25290.53490060 -.00000085  00000+0  10332-3 0  9996
2 31571  51.9885 213.8769 0009358 217.5216 313.7574 12.62010091848855
GLOBALSTAR M069         
1 31573U 07020C   25290.57640911 -.00000125  00000+0 -30011-3 0  9996
2 31573  52.0024 218.8057 0002330  21.3939 149.2164 12.23462179849106
GLOBALSTAR M072         
1 31574U 07020D   25290.66115241 -.00000079  00000+0  62368-4 0  9998
2 31574  51.9964  25.9124 0001325 176.7567 331.8239 11.91652201846060
GLOBALSTAR M071         
1 31576U 07020F   25290.64891111 -.00000024  00000+0  65968-3 0  9993
2 31576  52.0054 247.6717 0001231  13.6916 157.5130 12.18259727509861
